NORAD_CAT_ID,OBJECT_NAME,OBJECT_TYPE,EPOCH,MEAN_MOTION,ECCENTRICITY,INCLINATION,RA_OF_ASC_NODE,ARG_OF_PERICENTER,MEAN_ANOMALY,BSTAR,MEAN_MOTION_DOT,MEAN_MOTION_DDOT,TLE_LINE0,TLE_LINE1,TLE_LINE2,SEMIMAJOR_AXIS,PERIOD,APOGEE,PERIGEE,DECAYED
49165.0,STARLINK-3052,PAYLOAD,2022-11-29 15:56:41,14.98323997,0.0003101,70.0008,70.0592,260.4824,99.5985,0.00011527,1.282e-05,0.0,0 STARLINK-3052,1 49165U 21082AM  22333.66437353  .00001282  00000-0  11527-3 0  9990,2 49165  70.0008  70.0592 0003101 260.4824  99.5985 14.98323997 68033,6950.2109999999975,96.107,574.232,569.9209999999998,0.0
49165.0,STARLINK-3052,PAYLOAD,2022-11-30 12:46:27,14.98327427,0.0002924,70.0015,67.8719,259.5169,100.5661,-5.4292e-06,-1.58e-06,0.0,0 STARLINK-3052,1 49165U 21082AM  22334.53225723 -.00000158  00000-0 -54292-5 0  9994,2 49165  70.0015  67.8719 0002924 259.5169 100.5661 14.98327427 68158,6950.201,96.107,574.0980000000002,570.034,0.0
49165.0,STARLINK-3052,PAYLOAD,2022-11-30 15:58:43,14.98325749,0.0002955,70.0012,67.5346,258.9281,101.1546,-3.2028e-05,-4.75e-06,0.0,0 STARLINK-3052,1 49165U 21082AM  22334.66577883 -.00000475  00000-0 -32028-4 0  9999,2 49165  70.0012  67.5346 0002955 258.9281 101.1546 14.98325749 68187,6950.206,96.107,574.125,570.0169999999998,0.0
49165.0,STARLINK-3052,PAYLOAD,2022-12-01 16:00:43,14.98329015,0.0002954,70.002,65.0091,256.2459,103.8371,0.0001714,1.953e-05,0.0,0 STARLINK-3052,1 49165U 21082AM  22335.66716921  .00001953  00000-0  17140-3 0  9995,2 49165  70.0020  65.0091 0002954 256.2459 103.8371 14.98329015 68335,6950.196,96.107,574.114,570.008,0.0
49165.0,STARLINK-3052,PAYLOAD,2022-12-02 12:50:28,14.98327794,0.0002847,70.002,62.8212,259.8935,100.1903,0.00022218,2.559e-05,0.0,0 STARLINK-3052,1 49165U 21082AM  22336.53504790  .00002559  00000-0  22218-3 0  9996,2 49165  70.0020  62.8212 0002847 259.8935 100.1903 14.98327794 68450,6950.2,96.107,574.043,570.086,0.0
49165.0,STARLINK-3052,PAYLOAD,2022-12-03 09:40:12,14.98334494,0.000299,70.001,60.6332,263.1215,96.9604,-1.5662e-05,-2.8e-06,0.0,0 STARLINK-3052,1 49165U 21082AM  22337.40292791 -.00000280  00000-0 -15662-4 0  9995,2 49165  70.0010  60.6332 0002990 263.1215  96.9604 14.98334494 68596,6950.179,96.107,574.122,569.966,0.0
49165.0,STARLINK-3052,PAYLOAD,2022-12-03 12:52:29,14.983333800000002,0.000299,70.001,60.2966,262.7912,97.2907,-2.7841e-05,-4.25e-06,0.0,0 STARLINK-3052,1 49165U 21082AM  22337.53644852 -.00000425  00000-0 -27841-4 0  9991,2 49165  70.0010  60.2966 0002990 262.7912  97.2907 14.98333380 68609,6950.182,96.107,574.126,569.969,0.0
49165.0,STARLINK-3052,PAYLOAD,2022-12-03 16:04:45,14.98328284,0.0002778,70.0004,59.9567,268.3853,91.6988,-0.00011022,-1.408e-05,0.0,0 STARLINK-3052,1 49165U 21082AM  22337.66997335 -.00001408  00000-0 -11022-3 0  9997,2 49165  70.0004  59.9567 0002778 268.3853  91.6988 14.98328284 68631,6950.198,96.107,573.994,570.132,0.0
49165.0,STARLINK-3052,PAYLOAD,2022-12-04 11:18:22,14.98325552,0.0003067,70.0001,57.9398,263.2711,96.8099,-4.3125e-05,-6.07e-06,0.0,0 STARLINK-3052,1 49165U 21082AM  22338.47109610 -.00000607  00000-0 -43125-4 0  9998,2 49165  70.0001  57.9398 0003067 263.2711  96.8099 14.98325552 68744,6950.206999999999,96.107,574.203,569.94,0.0
49165.0,STARLINK-3052,PAYLOAD,2022-12-04 17:42:54,14.98329569,0.0003105,70.0005,57.2667,264.0156,96.0649,-2.3312e-05,-3.71e-06,0.0,0 STARLINK-3052,1 49165U 21082AM  22338.73813410 -.00000371  00000-0 -23312-4 0  9991,2 49165  70.0005  57.2667 0003105 264.0156  96.0649 14.98329569 68784,6950.194,96.107,574.217,569.901,0.0
49165.0,STARLINK-3052,PAYLOAD,2022-12-04 22:31:18,14.9833156,0.0003083,70.0007,56.7619,264.05,96.0308,4.6455e-05,4.61e-06,0.0,0 STARLINK-3052,1 49165U 21082AM  22338.93841133  .00000461  00000-0  46455-4 0  9997,2 49165  70.0007  56.7619 0003083 264.0500  96.0308 14.98331560 68826,6950.188,96.107,574.196,569.91,0.0
49165.0,STARLINK-3052,PAYLOAD,2022-12-05 11:20:22,14.98337509,0.0003128,70.0006,55.4152,263.7834,96.2969,0.00013876,1.563e-05,0.0,0 STARLINK-3052,1 49165U 21082AM  22339.47248422  .00001563  00000-0  13876-3 0  9993,2 49165  70.0006  55.4152 0003128 263.7834  96.2969 14.98337509 68902,6950.17,96.107,574.2090000000002,569.861,0.0
49165.0,STARLINK-3052,PAYLOAD,2022-12-05 14:32:38,14.98340055,0.0003078,70.0004,55.0785,263.5853,96.4955,0.00016498,1.877e-05,0.0,0 STARLINK-3052,1 49165U 21082AM  22339.60600169  .00001877  00000-0  16498-3 0  9999,2 49165  70.0004  55.0785 0003078 263.5853  96.4955 14.98340055 68919,6950.1619999999975,96.106,574.1659999999998,569.888,0.0
49165.0,STARLINK-3052,PAYLOAD,2022-12-06 11:22:24,14.98325852,0.0002964,70.0026,52.8905,261.3522,98.7302,0.00013884,1.564e-05,0.0,0 STARLINK-3052,1 49165U 21082AM  22340.47389128  .00001564  00000-0  13884-3 0  9994,2 49165  70.0026  52.8905 0002964 261.3522  98.7302 14.98325852 69059,6950.206,96.107,574.131,570.011,0.0
49165.0,STARLINK-3052,PAYLOAD,2022-12-06 14:34:40,14.98325319,0.0002975,70.001,52.5538,262.0058,98.0763,4.1935e-05,4.07e-06,0.0,0 STARLINK-3052,1 49165U 21082AM  22340.60741382  .00000407  00000-0  41935-4 0  9997,2 49165  70.0010  52.5538 0002975 262.0058  98.0763 14.98325319 69068,6950.206999999999,96.107,574.14,570.005,0.0
49165.0,STARLINK-3052,PAYLOAD,2022-12-07 11:24:25,14.98328053,0.0003631,70.003,50.3654,266.1884,93.886,-0.00012341,-1.565e-05,0.0,0 STARLINK-3052,1 49165U 21082AM  22341.47529605 -.00001565  00000-0 -12341-3 0  9991,2 49165  70.0030  50.3654 0003631 266.1884  93.8860 14.98328053 69202,6950.199000000001,96.107,574.5880000000002,569.54,0.0
49165.0,STARLINK-3052,PAYLOAD,2022-12-07 13:00:33,14.98326576,0.0002941,70.0012,50.1988,263.5745,96.5079,-0.00013158,-1.662e-05,0.0,0 STARLINK-3052,1 49165U 21082AM  22341.54205773 -.00001662  00000-0 -13158-3 0  9991,2 49165  70.0012  50.1988 0002941 263.5745  96.5079 14.98326576 69200,6950.203,96.107,574.113,570.024,0.0
49165.0,STARLINK-3052,PAYLOAD,2022-12-07 22:37:21,14.98332867,0.0002929,70.0016,49.1896,271.8213,88.26100000000002,3.3374e-05,3.05e-06,0.0,0 STARLINK-3052,1 49165U 21082AM  22341.94261101  .00000305  00000-0  33374-4 0  9996,2 49165  70.0016  49.1896 0002929 271.8213  88.2610 14.98332867 69274,6950.184,96.107,574.085,570.013,0.0
49165.0,STARLINK-3052,PAYLOAD,2022-12-08 14:38:42,14.98322354,0.0002933,70.002,47.508,262.08,98.0026,-0.00013416,-1.693e-05,0.0,0 STARLINK-3052,1 49165U 21082AM  22342.61021770 -.00001693  00000-0 -13416-3 0  9994,2 49165  70.0020  47.5080 0002933 262.0800  98.0026 14.98322354 69376,6950.217,96.107,574.12,570.043,0.0
49165.0,STARLINK-3052,PAYLOAD,2022-12-10 09:54:21,14.98326433,0.000275,70.0022,42.9608,262.6999,97.3847,-1.4054e-05,-2.61e-06,0.0,0 STARLINK-3052,1 49165U 21082AM  22344.41274536 -.00000261  00000-0 -14054-4 0  9994,2 49165  70.0022  42.9608 0002750 262.6999  97.3847 14.98326433 69640,6950.204000000002,96.107,573.98,570.158,0.0
49165.0,STARLINK-3052,PAYLOAD,2022-12-10 13:06:37,14.98328562,0.000281,70.0016,42.6238,262.7077,97.3763,-3.2264e-05,-4.78e-06,0.0,0 STARLINK-3052,1 49165U 21082AM  22344.54626454 -.00000478  00000-0 -32264-4 0  9991,2 49165  70.0016  42.6238 0002810 262.7077  97.3763 14.98328562 69657,6950.196999999999,96.107,574.015,570.109,0.0
49165.0,STARLINK-3052,PAYLOAD,2022-12-11 03:31:48,14.98343161,0.0002675,70.002,41.1095,255.6993,104.3869,0.00013131,1.475e-05,0.0,0 STARLINK-3052,1 49165U 21082AM  22345.14709189  .00001475  00000-0  13131-3 0  9992,2 49165  70.0020  41.1095 0002675 255.6993 104.3869 14.98343161 69753,6950.151999999999,96.106,573.876,570.158,0.0
49165.0,STARLINK-3052,PAYLOAD,2022-12-11 11:32:28,14.98358365,0.0002536,70.0018,40.2674,256.6,103.4877,-0.00011451,-1.46e-05,0.0,0 STARLINK-3052,1 49165U 21082AM  22345.48088585 -.00001460  00000-0 -11451-3 0  9998,2 49165  70.0018  40.2674 0002536 256.6000 103.4877 14.98358365 69794,6950.105,96.105,573.7330000000002,570.2080000000002,0.0
49165.0,STARLINK-3052,PAYLOAD,2022-12-11 14:44:46,14.98332472,0.0002524,70.0027,39.9298,273.9043,86.1827,0.00043932,5.153e-05,0.0,0 STARLINK-3052,1 49165U 21082AM  22345.61442345  .00005153  00000-0  43932-3 0  9991,2 49165  70.0027  39.9298 0002524 273.9043  86.1827 14.98332472 69824,6950.185,96.107,573.804,570.2959999999998,0.0
49165.0,STARLINK-3052,PAYLOAD,2022-12-12 11:34:30,14.9834082,0.0003178,70.0014,37.7424,266.7747,93.3049,0.00016668,1.897e-05,0.0,0 STARLINK-3052,1 49165U 21082AM  22346.48229432  .00001897  00000-0  16668-3 0  9994,2 49165  70.0014  37.7424 0003178 266.7747  93.3049 14.98340820 69949,6950.159000000002,96.106,574.2330000000002,569.816,0.0
49165.0,STARLINK-3052,PAYLOAD,2022-12-12 21:11:19,14.98328737,0.0003127,70.0012,36.7319,271.6299,88.4502,0.00038489,4.502e-05,0.0,0 STARLINK-3052,1 49165U 21082AM  22346.88285974  .00004502  00000-0  38489-3 0  9992,2 49165  70.0012  36.7319 0003127 271.6299  88.4502 14.98328737 70001,6950.196999999999,96.107,574.235,569.888,0.0
49165.0,STARLINK-3052,PAYLOAD,2022-12-13 10:00:22,14.98343563,0.0003069,70.0016,35.3849,266.4346,93.6462,2.6042e-05,2.18e-06,0.0,0 STARLINK-3052,1 49165U 21082AM  22347.41692625  .00000218  00000-0  26042-4 0  9990,2 49165  70.0016  35.3849 0003069 266.4346  93.6462 14.98343563 70094,6950.151,96.106,574.149,569.883,0.0
49165.0,STARLINK-3052,PAYLOAD,2022-12-13 13:12:38,14.98346708,0.0002968,70.0012,35.0485,262.797,97.2852,-0.00030551,-3.738e-05,0.0,0 STARLINK-3052,1 49165U 21082AM  22347.55044390 -.00003738  00000-0 -30551-3 0  9996,2 49165  70.0012  35.0485 0002968 262.7970  97.2852 14.98346708 70101,6950.141,96.106,574.069,569.943,0.0
49165.0,STARLINK-3052,PAYLOAD,2022-12-13 14:48:46,14.98336946,0.0003218,70.0012,34.8799,267.3417,92.7374,-7.4444e-05,-9.81e-06,0.0,0 STARLINK-3052,1 49165U 21082AM  22347.61720925 -.00000981  00000-0 -74444-4 0  9995,2 49165  70.0012  34.8799 0003218 267.3417  92.7374 14.98336946 70126,6950.170999999999,96.107,574.273,569.8,0.0
